{
    "links": {
        "self": "http://www.neowsapp.com/rest/v1/neo/3794967?api_key=iIulBulltgU6a56xZRHN4H3l9WmuAYTsLGpBGhQ2"
    },
    "id": "3794967",
    "neo_reference_id": "3794967",
    "name": "(2017 YN1)",
    "designation": "2017 YN1",
    "nasa_jpl_url": "http://ssd.jpl.nasa.gov/sbdb.cgi?sstr=3794967",
    "absolute_magnitude_h": 26.1,
    "estimated_diameter": {
        "kilometers": {
            "estimated_diameter_min": 0.0160160338,
            "estimated_diameter_max": 0.0358129403
        },
        "meters": {
            "estimated_diameter_min": 16.0160337979,
            "estimated_diameter_max": 35.8129403019
        },
        "miles": {
            "estimated_diameter_min": 0.0099518989,
            "estimated_diameter_max": 0.0222531225
        },
        "feet": {
            "estimated_diameter_min": 52.5460443254,
            "estimated_diameter_max": 117.4965270602
        }
    },
    "is_potentially_hazardous_asteroid": false,
    "close_approach_data": [
        {
            "close_approach_date": "1940-12-16",
            "close_approach_date_full": "1940-Dec-16 18:50",
            "epoch_date_close_approach": -916463400000,
            "relative_velocity": {
                "kilometers_per_second": "7.5899810812",
                "kilometers_per_hour": "27323.9318924455",
                "miles_per_hour": "16978.0286806143"
            },
            "miss_distance": {
                "astronomical": "0.0272326648",
                "lunar": "10.5935066072",
                "kilometers": "4073948.648503976",
                "miles": "2531434.3060118288"
            },
            "orbiting_body": "Earth"
        },
        {
            "close_approach_date": "2017-12-20",
            "close_approach_date_full": "2017-Dec-20 01:54",
            "epoch_date_close_approach": 1513734840000,
            "relative_velocity": {
                "kilometers_per_second": "8.0880577011",
                "kilometers_per_hour": "29117.0077240559",
                "miles_per_hour": "18092.1762716502"
            },
            "miss_distance": {
                "astronomical": "0.0215004145",
                "lunar": "8.3636612405",
                "kilometers": "3216416.213317115",
                "miles": "1998588.359181587"
            },
            "orbiting_body": "Earth"
        },
        {
            "close_approach_date": "2033-07-24",
            "close_approach_date_full": "2033-Jul-24 19:25",
            "epoch_date_close_approach": 2005845900000,
            "relative_velocity": {
                "kilometers_per_second": "7.2401979087",
                "kilometers_per_hour": "26064.712471348",
                "miles_per_hour": "16195.5987019884"
            },
            "miss_distance": {
                "astronomical": "0.0407745824",
                "lunar": "15.8613125536",
                "kilometers": "6099790.677179488",
                "miles": "3790234.1713054144"
            },
            "orbiting_body": "Mars"
        }
    ],
    "orbital_data": {
        "orbit_id": "2",
        "orbit_determination_date": "2018-01-12 06:23:11",
        "first_observation_date": "2017-12-21",
        "last_observation_date": "2017-12-24",
        "data_arc_in_days": 3,
        "observations_used": 34,
        "orbit_uncertainty": "7",
        "minimum_orbit_intersection": ".0208349",
        "jupiter_tisserand_invariant": "4.760",
        "epoch_osculation": "2459000.5",
        "eccentricity": ".3098228889301285",
        "semi_major_axis": "1.370347158474514",
        "inclination": "9.179338884691692",
        "ascending_node_longitude": "92.63614820490673",
        "orbital_period": "585.9281078315573",
        "perihelion_distance": ".9457822429987476",
        "perihelion_argument": "315.6654710650063",
        "aphelion_distance": "1.794912073950281",
        "perihelion_time": "2459246.057566404549",
        "mean_anomaly": "209.1270128125495",
        "mean_motion": ".6144098485602825",
        "equinox": "J2000",
        "orbit_class": {
            "orbit_class_type": "APO",
            "orbit_class_description": "Near-Earth asteroid orbits which cross the Earth’s orbit similar to that of 1862 Apollo",
            "orbit_class_range": "a (semi-major axis) > 1.0 AU; q (perihelion) < 1.017 AU"
        }
    },
    "is_sentry_object": false
}